start=new Date('2021-09-17T00:00:00.000Z').valueOf();
sats=[{"APOAPSIS":"441.875","REF_FRAME":"TEME","SITE":"AFETR","TLE_LINE1":"1 48575U 21041Y   21259.91667824  .00055060  00000-0  12663-2 0  9995","OBJECT_TYPE":"PAYLOAD","OBJECT_NAME":"STARLINK-2227","ARG_OF_PERICENTER":"50.4300","RA_OF_ASC_NODE":"253.7081","LAUNCH_DATE":"2021-05-15","TLE_LINE2":"2 48575  53.0577 253.7081 0003046  50.4300 252.0165 15.42139578  3660","CLASSIFICATION_TYPE":"U","OBJECT_ID":"2021-041Y","MEAN_MOTION_DDOT":"0.0000000000000","PERIOD":"93.377","RCS_SIZE":"LARGE","MEAN_ELEMENT_THEORY":"SGP4","MEAN_MOTION":"15.42139578","COUNTRY_CODE":"US","GP_ID":"184853554","SEMIMAJOR_AXIS":"6817.933","ELEMENT_SET_NO":"999","ECCENTRICITY":"0.00030460","EPOCH":"2021-09-16T22:00:00.999936","NORAD_CAT_ID":"48575","TIME_SYSTEM":"UTC","REV_AT_EPOCH":"366","INCLINATION":"53.0577","DECAY_DATE":null,"EPHEMERIS_TYPE":"0","MEAN_MOTION_DOT":"0.00055060","CENTER_NAME":"EARTH","FILE":"3117438","BSTAR":"0.00126630000000","PERIAPSIS":"437.721","MEAN_ANOMALY":"252.0165"},{"LAUNCH_DATE":"2021-05-15","TLE_LINE2":"2 48576  53.0526 250.7159 0002447  26.0842 280.5521 15.42140723 19520","CLASSIFICATION_TYPE":"U","OBJECT_ID":"2021-041Z","MEAN_MOTION_DDOT":"0.0000000000000","PERIOD":"93.377","RCS_SIZE":"LARGE","MEAN_ELEMENT_THEORY":"SGP4","APOAPSIS":"441.463","REF_FRAME":"TEME","SITE":"AFETR","TLE_LINE1":"1 48576U 21041Z   21259.91667824  .00054557  00000-0  12549-2 0  9999","ARG_OF_PERICENTER":"26.0842","OBJECT_TYPE":"PAYLOAD","OBJECT_NAME":"STARLINK-2228","RA_OF_ASC_NODE":"250.7159","SEMIMAJOR_AXIS":"6817.929","MEAN_MOTION":"15.42140723","COUNTRY_CODE":"US","GP_ID":"184827215","ELEMENT_SET_NO":"999","ECCENTRICITY":"0.00024470","EPOCH":"2021-09-16T22:00:00.999936","CENTER_NAME":"EARTH","FILE":"3117308","BSTAR":"0.00125490000000","PERIAPSIS":"438.126","MEAN_ANOMALY":"280.5521","NORAD_CAT_ID":"48576","TIME_SYSTEM":"UTC","REV_AT_EPOCH":"1952","DECAY_DATE":null,"INCLINATION":"53.0526","EPHEMERIS_TYPE":"0","MEAN_MOTION_DOT":"0.00054557"},{"FILE":"3117438","CENTER_NAME":"EARTH","BSTAR":"0.00008699100000","MEAN_ANOMALY":"313.0726","PERIAPSIS":"547.043","NORAD_CAT_ID":"48577","TIME_SYSTEM":"UTC","EPHEMERIS_TYPE":"0","DECAY_DATE":null,"INCLINATION":"53.0532","REV_AT_EPOCH":"1877","MEAN_MOTION_DOT":"0.00001015","ELEMENT_SET_NO":"999","ECCENTRICITY":"0.00002510","EPOCH":"2021-09-16T17:45:15.405696","SEMIMAJOR_AXIS":"6925.352","COUNTRY_CODE":"US","MEAN_MOTION":"15.06399018","GP_ID":"184854036","LAUNCH_DATE":"2021-05-15","TLE_LINE2":"2 48577  53.0532 271.2049 0000251  47.0284 313.0726 15.06399018 18776","CLASSIFICATION_TYPE":"U","PERIOD":"95.592","MEAN_MOTION_DDOT":"0.0000000000000","OBJECT_ID":"2021-041AA","RCS_SIZE":"LARGE","MEAN_ELEMENT_THEORY":"SGP4","SITE":"AFETR","REF_FRAME":"TEME","APOAPSIS":"547.390","TLE_LINE1":"1 48577U 21041AA  21259.73976164  .00001015  00000-0  86991-4 0  9995","ARG_OF_PERICENTER":"47.0284","OBJECT_TYPE":"PAYLOAD","OBJECT_NAME":"STARLINK-2231","RA_OF_ASC_NODE":"271.2049"},{"OBJECT_TYPE":"PAYLOAD","OBJECT_NAME":"STARLINK-2232","ARG_OF_PERICENTER":"64.5151","RA_OF_ASC_NODE":"272.1579","SITE":"AFETR","REF_FRAME":"TEME","APOAPSIS":"547.687","TLE_LINE1":"1 48578U 21041AB  21259.52136320  .00000791  00000-0  71956-4 0  9990","PERIOD":"95.593","MEAN_MOTION_DDOT":"0.0000000000000","OBJECT_ID":"2021-041AB","MEAN_ELEMENT_THEORY":"SGP4","RCS_SIZE":"LARGE","TLE_LINE2":"2 48578  53.0533 272.1579 0000640  64.5151 295.5904 15.06390147 18748","LAUNCH_DATE":"2021-05-15","CLASSIFICATION_TYPE":"U","GP_ID":"184853360","COUNTRY_CODE":"US","MEAN_MOTION":"15.06390147","SEMIMAJOR_AXIS":"6925.379","ECCENTRICITY":"0.00006400","EPOCH":"2021-09-16T12:30:45.780480","ELEMENT_SET_NO":"999","EPHEMERIS_TYPE":"0","DECAY_DATE":null,"INCLINATION":"53.0533","REV_AT_EPOCH":"1874","MEAN_MOTION_DOT":"0.00000791","NORAD_CAT_ID":"48578","TIME_SYSTEM":"UTC","MEAN_ANOMALY":"295.5904","PERIAPSIS":"546.801","FILE":"3117438","CENTER_NAME":"EARTH","BSTAR":"0.00007195600000"},{"ELEMENT_SET_NO":"999","ECCENTRICITY":"0.00006050","EPOCH":"2021-09-16T17:29:20.987232","BSTAR":"0.00006488200000","FILE":"3117438","CENTER_NAME":"EARTH","MEAN_ANOMALY":"278.0251","PERIAPSIS":"546.826","TIME_SYSTEM":"UTC","NORAD_CAT_ID":"48579","MEAN_MOTION_DOT":"0.00000685","INCLINATION":"53.0556","DECAY_DATE":null,"EPHEMERIS_TYPE":"0","REV_AT_EPOCH":"1877","CLASSIFICATION_TYPE":"U","LAUNCH_DATE":"2021-05-15","TLE_LINE2":"2 48579  53.0556 271.2370 0000605  82.0806 278.0251 15.06389676 18775","RCS_SIZE":"LARGE","MEAN_ELEMENT_THEORY":"SGP4","PERIOD":"95.593","OBJECT_ID":"2021-041AC","MEAN_MOTION_DDOT":"0.0000000000000","TLE_LINE1":"1 48579U 21041AC  21259.72871513  .00000685  00000-0  64882-4 0  9995","SITE":"AFETR","REF_FRAME":"TEME","APOAPSIS":"547.664","RA_OF_ASC_NODE":"271.2370","OBJECT_NAME":"STARLINK-2233","OBJECT_TYPE":"PAYLOAD","ARG_OF_PERICENTER":"82.0806","SEMIMAJOR_AXIS":"6925.380","MEAN_MOTION":"15.06389676","COUNTRY_CODE":"US","GP_ID":"184853868"},{"ELEMENT_SET_NO":"999","ECCENTRICITY":"0.00021850","EPOCH":"2021-09-16T22:00:00.999936","NORAD_CAT_ID":"48580","TIME_SYSTEM":"UTC","REV_AT_EPOCH":"365","DECAY_DATE":null,"EPHEMERIS_TYPE":"0","INCLINATION":"53.0527","MEAN_MOTION_DOT":"0.00046042","CENTER_NAME":"EARTH","FILE":"3117438","BSTAR":"0.00106170000000","PERIAPSIS":"438.306","MEAN_ANOMALY":"279.4721","APOAPSIS":"441.285","REF_FRAME":"TEME","SITE":"AFETR","TLE_LINE1":"1 48580U 21041AD  21259.91667824  .00046042  00000-0  10617-2 0  9998","ARG_OF_PERICENTER":"26.5280","OBJECT_TYPE":"PAYLOAD","OBJECT_NAME":"STARLINK-2234","RA_OF_ASC_NODE":"250.7169","LAUNCH_DATE":"2021-05-15","TLE_LINE2":"2 48580  53.0527 250.7169 0002185  26.5280 279.4721 15.42140461  3652","CLASSIFICATION_TYPE":"U","OBJECT_ID":"2021-041AD","MEAN_MOTION_DDOT":"0.0000000000000","PERIOD":"93.377","MEAN_ELEMENT_THEORY":"SGP4","RCS_SIZE":"LARGE","MEAN_MOTION":"15.42140461","COUNTRY_CODE":"US","GP_ID":"184853771","SEMIMAJOR_AXIS":"6817.930"},{"DECAY_DATE":null,"EPHEMERIS_TYPE":"0","INCLINATION":"53.0526","REV_AT_EPOCH":"1950","MEAN_MOTION_DOT":"0.00011247","NORAD_CAT_ID":"48581","TIME_SYSTEM":"UTC","MEAN_ANOMALY":"263.1721","PERIAPSIS":"438.408","FILE":"3117308","CENTER_NAME":"EARTH","BSTAR":"0.00026750000000","ECCENTRICITY":"0.00019480","EPOCH":"2021-09-16T22:00:00.999936","ELEMENT_SET_NO":"999","GP_ID":"184827709","COUNTRY_CODE":"US","MEAN_MOTION":"15.42160409","SEMIMAJOR_AXIS":"6817.871","OBJECT_TYPE":"PAYLOAD","ARG_OF_PERICENTER":"39.0552","OBJECT_NAME":"STARLINK-2235","RA_OF_ASC_NODE":"252.8383","REF_FRAME":"TEME","SITE":"AFETR","APOAPSIS":"441.065","TLE_LINE1":"1 48581U 21041AE  21259.91667824  .00011247  00000-0  26750-3 0  9994","PERIOD":"93.376","OBJECT_ID":"2021-041AE","MEAN_MOTION_DDOT":"0.0000000000000","MEAN_ELEMENT_THEORY":"SGP4","RCS_SIZE":"LARGE","TLE_LINE2":"2 48581  53.0526 252.8383 0001948  39.0552 263.1721 15.42160409 19505","LAUNCH_DATE":"2021-05-15","CLASSIFICATION_TYPE":"U"},{"ECCENTRICITY":"0.00021610","EPOCH":"2021-09-16T22:00:00.999936","ELEMENT_SET_NO":"999","PERIAPSIS":"438.218","MEAN_ANOMALY":"274.3680","CENTER_NAME":"EARTH","FILE":"3117298","BSTAR":"-0.00007252600000","REV_AT_EPOCH":"1952","EPHEMERIS_TYPE":"0","DECAY_DATE":null,"INCLINATION":"53.0533","MEAN_MOTION_DOT":"-0.00003569","NORAD_CAT_ID":"48582","TIME_SYSTEM":"UTC","MEAN_MOTION_DDOT":"0.0000000000000","OBJECT_ID":"2021-041AF","PERIOD":"93.375","RCS_SIZE":"LARGE","MEAN_ELEMENT_THEORY":"SGP4","TLE_LINE2":"2 48582  53.0533 251.4036 0002161  33.1259 274.3680 15.42175809 19521","LAUNCH_DATE":"2021-05-15","CLASSIFICATION_TYPE":"U","ARG_OF_PERICENTER":"33.1259","OBJECT_TYPE":"PAYLOAD","OBJECT_NAME":"STARLINK-2236","RA_OF_ASC_NODE":"251.4036","APOAPSIS":"441.164","REF_FRAME":"TEME","SITE":"AFETR","TLE_LINE1":"1 48582U 21041AF  21259.91667824 -.00003569  00000-0 -72526-4 0  9998","SEMIMAJOR_AXIS":"6817.826","GP_ID":"184827282","MEAN_MOTION":"15.42175809","COUNTRY_CODE":"US"},{"EPOCH":"2021-09-16T18:37:01.495200","ECCENTRICITY":"0.00006780","ELEMENT_SET_NO":"999","PERIAPSIS":"546.783","MEAN_ANOMALY":"283.5088","BSTAR":"-0.00005135200000","CENTER_NAME":"EARTH","FILE":"3117438","MEAN_MOTION_DOT":"-0.00001046","REV_AT_EPOCH":"1864","INCLINATION":"53.0563","DECAY_DATE":null,"EPHEMERIS_TYPE":"0","TIME_SYSTEM":"UTC","NORAD_CAT_ID":"48583","MEAN_ELEMENT_THEORY":"SGP4","RCS_SIZE":"LARGE","OBJECT_ID":"2021-041AG","MEAN_MOTION_DDOT":"0.0000000000000","PERIOD":"95.593","CLASSIFICATION_TYPE":"U","LAUNCH_DATE":"2021-05-15","TLE_LINE2":"2 48583  53.0563 281.0308 0000678  76.5976 283.5088 15.06387173 18649","RA_OF_ASC_NODE":"281.0308","OBJECT_TYPE":"PAYLOAD","OBJECT_NAME":"STARLINK-2237","ARG_OF_PERICENTER":"76.5976","TLE_LINE1":"1 48583U 21041AG  21259.77571175 -.00001046  00000-0 -51352-4 0  9998","APOAPSIS":"547.722","REF_FRAME":"TEME","SITE":"AFETR","SEMIMAJOR_AXIS":"6925.388","GP_ID":"184853555","MEAN_MOTION":"15.06387173","COUNTRY_CODE":"US"},{"GP_ID":"184853458","COUNTRY_CODE":"US","MEAN_MOTION":"15.06383601","SEMIMAJOR_AXIS":"6925.399","OBJECT_NAME":"STARLINK-2238","OBJECT_TYPE":"PAYLOAD","ARG_OF_PERICENTER":"65.8034","RA_OF_ASC_NODE":"280.3857","REF_FRAME":"TEME","SITE":"AFETR","APOAPSIS":"547.609","TLE_LINE1":"1 48584U 21041AH  21259.91667824  .00036485  00000-0  24567-2 0  9991","PERIOD":"95.593","MEAN_MOTION_DDOT":"0.0000000000000","OBJECT_ID":"2021-041AH","RCS_SIZE":"LARGE","MEAN_ELEMENT_THEORY":"SGP4","LAUNCH_DATE":"2021-05-15","TLE_LINE2":"2 48584  53.0528 280.3857 0000499  65.8034 119.2359 15.06383601  3607","CLASSIFICATION_TYPE":"U","EPHEMERIS_TYPE":"0","DECAY_DATE":null,"INCLINATION":"53.0528","REV_AT_EPOCH":"360","MEAN_MOTION_DOT":"0.00036485","NORAD_CAT_ID":"48584","TIME_SYSTEM":"UTC","MEAN_ANOMALY":"119.2359","PERIAPSIS":"546.918","FILE":"3117438","CENTER_NAME":"EARTH","BSTAR":"0.00245670000000","ECCENTRICITY":"0.00004990","EPOCH":"2021-09-16T22:00:00.999936","ELEMENT_SET_NO":"999"}];
